<?xml version="1.0"?>
<gpx version="1.1" creator="Xcode">
    <wpt lat="40.768075" lon="-73.981897">
        <time>2026-08-04T15:03:37Z</time>
    </wpt>
    <wpt lat="40.76820856565657" lon="-73.981741">
        <time>2026-08-04T15:03:38Z</time>
    </wpt>
    <wpt lat="40.76834213131313" lon="-73.98158500000001">
        <time>2026-08-04T15:03:39Z</time>
    </wpt>
    <wpt lat="40.7684756969697" lon="-73.981429">
        <time>2026-08-04T15:03:40Z</time>
    </wpt>
    <wpt lat="40.76860926262626" lon="-73.981273">
        <time>2026-08-04T15:03:41Z</time>
    </wpt>
    <wpt lat="40.76874282828283" lon="-73.981117">
        <time>2026-08-04T15:03:42Z</time>
    </wpt>
    <wpt lat="40.768876393939394" lon="-73.98096100000001">
        <time>2026-08-04T15:03:43Z</time>
    </wpt>
    <wpt lat="40.76900995959596" lon="-73.980805">
        <time>2026-08-04T15:03:44Z</time>
    </wpt>
    <wpt lat="40.76914352525253" lon="-73.980649">
        <time>2026-08-04T15:03:45Z</time>
    </wpt>
    <wpt lat="40.76927709090909" lon="-73.98049300000001">
        <time>2026-08-04T15:03:46Z</time>
    </wpt>
    <wpt lat="40.76941065656566" lon="-73.980337">
        <time>2026-08-04T15:03:47Z</time>
    </wpt>
    <wpt lat="40.76954422222222" lon="-73.980181">
        <time>2026-08-04T15:03:48Z</time>
    </wpt>
    <wpt lat="40.76967778787879" lon="-73.980025">
        <time>2026-08-04T15:03:49Z</time>
    </wpt>
    <wpt lat="40.76981135353535" lon="-73.97986900000001">
        <time>2026-08-04T15:03:50Z</time>
    </wpt>
    <wpt lat="40.76994491919192" lon="-73.979713">
        <time>2026-08-04T15:03:51Z</time>
    </wpt>
    <wpt lat="40.77007848484849" lon="-73.979557">
        <time>2026-08-04T15:03:52Z</time>
    </wpt>
    <wpt lat="40.77021205050505" lon="-73.97940100000001">
        <time>2026-08-04T15:03:53Z</time>
    </wpt>
    <wpt lat="40.77034561616162" lon="-73.979245">
        <time>2026-08-04T15:03:54Z</time>
    </wpt>
    <wpt lat="40.77047918181818" lon="-73.979089">
        <time>2026-08-04T15:03:55Z</time>
    </wpt>
    <wpt lat="40.77061274747475" lon="-73.978933">
        <time>2026-08-04T15:03:56Z</time>
    </wpt>
    <wpt lat="40.77074631313132" lon="-73.97877700000001">
        <time>2026-08-04T15:03:57Z</time>
    </wpt>
    <wpt lat="40.77087987878788" lon="-73.978621">
        <time>2026-08-04T15:03:58Z</time>
    </wpt>
    <wpt lat="40.77101344444445" lon="-73.978465">
        <time>2026-08-04T15:03:59Z</time>
    </wpt>
    <wpt lat="40.77114701010101" lon="-73.97830900000001">
        <time>2026-08-04T15:04:00Z</time>
    </wpt>
    <wpt lat="40.77128057575758" lon="-73.978153">
        <time>2026-08-04T15:04:01Z</time>
    </wpt>
    <wpt lat="40.77141414141414" lon="-73.977997">
        <time>2026-08-04T15:04:02Z</time>
    </wpt>
    <wpt lat="40.77154770707071" lon="-73.977841">
        <time>2026-08-04T15:04:03Z</time>
    </wpt>
    <wpt lat="40.77168127272728" lon="-73.97768500000001">
        <time>2026-08-04T15:04:04Z</time>
    </wpt>
    <wpt lat="40.77181483838384" lon="-73.977529">
        <time>2026-08-04T15:04:05Z</time>
    </wpt>
    <wpt lat="40.77194840404041" lon="-73.977373">
        <time>2026-08-04T15:04:06Z</time>
    </wpt>
    <wpt lat="40.77208196969697" lon="-73.977217">
        <time>2026-08-04T15:04:07Z</time>
    </wpt>
    <wpt lat="40.77221553535354" lon="-73.977061">
        <time>2026-08-04T15:04:08Z</time>
    </wpt>
    <wpt lat="40.7723491010101" lon="-73.976905">
        <time>2026-08-04T15:04:09Z</time>
    </wpt>
    <wpt lat="40.77248266666667" lon="-73.976749">
        <time>2026-08-04T15:04:10Z</time>
    </wpt>
    <wpt lat="40.77261623232324" lon="-73.97659300000001">
        <time>2026-08-04T15:04:11Z</time>
    </wpt>
    <wpt lat="40.7727497979798" lon="-73.976437">
        <time>2026-08-04T15:04:12Z</time>
    </wpt>
    <wpt lat="40.77288336363637" lon="-73.976281">
        <time>2026-08-04T15:04:13Z</time>
    </wpt>
    <wpt lat="40.77301692929293" lon="-73.976125">
        <time>2026-08-04T15:04:14Z</time>
    </wpt>
    <wpt lat="40.7731504949495" lon="-73.975969">
        <time>2026-08-04T15:04:15Z</time>
    </wpt>
    <wpt lat="40.77328406060606" lon="-73.975813">
        <time>2026-08-04T15:04:16Z</time>
    </wpt>
    <wpt lat="40.77341762626263" lon="-73.975657">
        <time>2026-08-04T15:04:17Z</time>
    </wpt>
    <wpt lat="40.773551191919196" lon="-73.97550100000001">
        <time>2026-08-04T15:04:18Z</time>
    </wpt>
    <wpt lat="40.77368475757576" lon="-73.975345">
        <time>2026-08-04T15:04:19Z</time>
    </wpt>
    <wpt lat="40.77381832323233" lon="-73.975189">
        <time>2026-08-04T15:04:20Z</time>
    </wpt>
    <wpt lat="40.77395188888889" lon="-73.975033">
        <time>2026-08-04T15:04:21Z</time>
    </wpt>
    <wpt lat="40.77408545454546" lon="-73.974877">
        <time>2026-08-04T15:04:22Z</time>
    </wpt>
    <wpt lat="40.77421902020202" lon="-73.974721">
        <time>2026-08-04T15:04:23Z</time>
    </wpt>
    <wpt lat="40.77435258585859" lon="-73.974565">
        <time>2026-08-04T15:04:24Z</time>
    </wpt>
    <wpt lat="40.774486151515156" lon="-73.97440900000001">
        <time>2026-08-04T15:04:25Z</time>
    </wpt>
    <wpt lat="40.77461971717172" lon="-73.974253">
        <time>2026-08-04T15:04:26Z</time>
    </wpt>
    <wpt lat="40.774753282828286" lon="-73.974097">
        <time>2026-08-04T15:04:27Z</time>
    </wpt>
    <wpt lat="40.77488684848485" lon="-73.973941">
        <time>2026-08-04T15:04:28Z</time>
    </wpt>
    <wpt lat="40.775020414141416" lon="-73.973785">
        <time>2026-08-04T15:04:29Z</time>
    </wpt>
    <wpt lat="40.775153979797985" lon="-73.973629">
        <time>2026-08-04T15:04:30Z</time>
    </wpt>
    <wpt lat="40.775287545454546" lon="-73.973473">
        <time>2026-08-04T15:04:31Z</time>
    </wpt>
    <wpt lat="40.775421111111115" lon="-73.97331700000001">
        <time>2026-08-04T15:04:32Z</time>
    </wpt>
    <wpt lat="40.775554676767676" lon="-73.973161">
        <time>2026-08-04T15:04:33Z</time>
    </wpt>
    <wpt lat="40.775688242424245" lon="-73.973005">
        <time>2026-08-04T15:04:34Z</time>
    </wpt>
    <wpt lat="40.775821808080806" lon="-73.972849">
        <time>2026-08-04T15:04:35Z</time>
    </wpt>
    <wpt lat="40.775955373737375" lon="-73.972693">
        <time>2026-08-04T15:04:36Z</time>
    </wpt>
    <wpt lat="40.776088939393944" lon="-73.972537">
        <time>2026-08-04T15:04:37Z</time>
    </wpt>
    <wpt lat="40.776222505050505" lon="-73.972381">
        <time>2026-08-04T15:04:38Z</time>
    </wpt>
    <wpt lat="40.776356070707074" lon="-73.97222500000001">
        <time>2026-08-04T15:04:39Z</time>
    </wpt>
    <wpt lat="40.776489636363635" lon="-73.972069">
        <time>2026-08-04T15:04:40Z</time>
    </wpt>
    <wpt lat="40.776623202020204" lon="-73.971913">
        <time>2026-08-04T15:04:41Z</time>
    </wpt>
    <wpt lat="40.776756767676765" lon="-73.971757">
        <time>2026-08-04T15:04:42Z</time>
    </wpt>
    <wpt lat="40.776890333333334" lon="-73.971601">
        <time>2026-08-04T15:04:43Z</time>
    </wpt>
    <wpt lat="40.7770238989899" lon="-73.971445">
        <time>2026-08-04T15:04:44Z</time>
    </wpt>
    <wpt lat="40.777157464646464" lon="-73.971289">
        <time>2026-08-04T15:04:45Z</time>
    </wpt>
    <wpt lat="40.77729103030303" lon="-73.97113300000001">
        <time>2026-08-04T15:04:46Z</time>
    </wpt>
    <wpt lat="40.777424595959594" lon="-73.970977">
        <time>2026-08-04T15:04:47Z</time>
    </wpt>
    <wpt lat="40.77755816161616" lon="-73.970821">
        <time>2026-08-04T15:04:48Z</time>
    </wpt>
    <wpt lat="40.777691727272725" lon="-73.970665">
        <time>2026-08-04T15:04:49Z</time>
    </wpt>
    <wpt lat="40.77782529292929" lon="-73.970509">
        <time>2026-08-04T15:04:50Z</time>
    </wpt>
    <wpt lat="40.77795885858586" lon="-73.970353">
        <time>2026-08-04T15:04:51Z</time>
    </wpt>
    <wpt lat="40.77809242424242" lon="-73.970197">
        <time>2026-08-04T15:04:52Z</time>
    </wpt>
    <wpt lat="40.77822598989899" lon="-73.970041">
        <time>2026-08-04T15:04:53Z</time>
    </wpt>
    <wpt lat="40.778359555555554" lon="-73.969885">
        <time>2026-08-04T15:04:54Z</time>
    </wpt>
    <wpt lat="40.77849312121212" lon="-73.969729">
        <time>2026-08-04T15:04:55Z</time>
    </wpt>
    <wpt lat="40.778626686868684" lon="-73.969573">
        <time>2026-08-04T15:04:56Z</time>
    </wpt>
    <wpt lat="40.77876025252525" lon="-73.969417">
        <time>2026-08-04T15:04:57Z</time>
    </wpt>
    <wpt lat="40.77889381818182" lon="-73.969261">
        <time>2026-08-04T15:04:58Z</time>
    </wpt>
    <wpt lat="40.77902738383838" lon="-73.969105">
        <time>2026-08-04T15:04:59Z</time>
    </wpt>
    <wpt lat="40.77916094949495" lon="-73.968949">
        <time>2026-08-04T15:05:00Z</time>
    </wpt>
    <wpt lat="40.77929451515151" lon="-73.968793">
        <time>2026-08-04T15:05:01Z</time>
    </wpt>
    <wpt lat="40.77942808080808" lon="-73.968637">
        <time>2026-08-04T15:05:02Z</time>
    </wpt>
    <wpt lat="40.77956164646465" lon="-73.968481">
        <time>2026-08-04T15:05:03Z</time>
    </wpt>
    <wpt lat="40.77969521212121" lon="-73.96832500000001">
        <time>2026-08-04T15:05:04Z</time>
    </wpt>
    <wpt lat="40.77982877777778" lon="-73.968169">
        <time>2026-08-04T15:05:05Z</time>
    </wpt>
    <wpt lat="40.77996234343434" lon="-73.968013">
        <time>2026-08-04T15:05:06Z</time>
    </wpt>
    <wpt lat="40.78009590909091" lon="-73.967857">
        <time>2026-08-04T15:05:07Z</time>
    </wpt>
    <wpt lat="40.78022947474747" lon="-73.967701">
        <time>2026-08-04T15:05:08Z</time>
    </wpt>
    <wpt lat="40.78036304040404" lon="-73.967545">
        <time>2026-08-04T15:05:09Z</time>
    </wpt>
    <wpt lat="40.78049660606061" lon="-73.967389">
        <time>2026-08-04T15:05:10Z</time>
    </wpt>
    <wpt lat="40.78063017171717" lon="-73.96723300000001">
        <time>2026-08-04T15:05:11Z</time>
    </wpt>
    <wpt lat="40.78076373737374" lon="-73.967077">
        <time>2026-08-04T15:05:12Z</time>
    </wpt>
    <wpt lat="40.7808973030303" lon="-73.966921">
        <time>2026-08-04T15:05:13Z</time>
    </wpt>
    <wpt lat="40.78103086868687" lon="-73.966765">
        <time>2026-08-04T15:05:14Z</time>
    </wpt>
    <wpt lat="40.78116443434343" lon="-73.966609">
        <time>2026-08-04T15:05:15Z</time>
    </wpt>
    <wpt lat="40.781298" lon="-73.966453">
        <time>2026-08-04T15:05:16Z</time>
    </wpt>
</gpx>
